GLOBALSTAR M057 [-]     
1 25943U 99058A   24044.38537781 -.00000057  00000+0  32553-3 0  9993
2 25943  51.9991 298.2033 0003319  75.2233 284.8984 12.24779440106914
GLOBALSTAR M059 [-]     
1 25944U 99058B   24044.37325514 -.00000018  00000+0  84828-3 0  9991
2 25944  52.0017  92.2517 0000848 123.8087 249.5307 11.99962499515242
GLOBALSTAR M056 [-]     
1 25945U 99058C   24044.42039595 -.00000106  00000+0 -21189-3 0  9999
2 25945  51.9961 106.6640 0000606 245.5395 127.1550 12.04773679103591
GLOBALSTAR M031 [-]     
1 25946U 99058D   24044.45829542  .00000035  00000+0  12728-2 0  9999
2 25946  51.9980  28.1891 0001246 266.5112 269.4735 12.16002223104960
GLOBALSTAR M039 [-]     
1 25961U 99062A   24044.50637765 -.00000050  00000+0  29949-3 0  9993
2 25961  51.9866 320.1346 0002962 354.7335   5.3500 12.62281647118370
GLOBALSTAR M034 [-]     
1 25962U 99062B   24044.61449991 -.00000064  00000+0  27361-3 0  9999
2 25962  51.9843 203.9653 0014039 192.5294 246.9002 11.79424495 80628
GLOBALSTAR M029 [-]     
1 25963U 99062C   24044.55198417 -.00000065  00000+0  26423-3 0  9996
2 25963  51.9834 340.2251 0002118 237.0380 294.4593 11.99873477110340
GLOBALSTAR M061 [-]     
1 25964U 99062D   24044.27923744 -.00000080  00000+0 -25714-5 0  9997
2 25964  51.9819  22.3802 0006116 122.8531 344.1888 11.76758619 63505
