<?xml version="1.0" encoding="UTF-8"?>
<ndm xmlns:xsi="http://www.w3.org/2001/XMLSchema-instance" xsi:noNamespaceSchemaLocation="https://sanaregistry.org/r/ndmxml_unqualified/ndmxml-2.0.0-master-2.0.xsd">
<omm id="CCSDS_OMM_VERS" version="2.0">
<header><CREATION_DATE/><ORIGINATOR/></header><body><segment><metadata><OBJECT_NAME>GLOBALSTAR M057 [-]</OBJECT_NAME><OBJECT_ID>1999-058A</OBJECT_ID><CENTER_NAME>EARTH</CENTER_NAME><REF_FRAME>TEME</REF_FRAME><TIME_SYSTEM>UTC</TIME_SYSTEM><MEAN_ELEMENT_THEORY>SGP4</MEAN_ELEMENT_THEORY></metadata><data><meanElements><EPOCH>2024-02-13T09:14:56.642784</EPOCH><MEAN_MOTION>12.24779440</MEAN_MOTION><ECCENTRICITY>.0003319</ECCENTRICITY><INCLINATION>51.9991</INCLINATION><RA_OF_ASC_NODE>298.2033</RA_OF_ASC_NODE><ARG_OF_PERICENTER>75.2233</ARG_OF_PERICENTER><MEAN_ANOMALY>284.8984</MEAN_ANOMALY></meanElements><tleParameters><EPHEMERIS_TYPE>0</EPHEMERIS_TYPE><CLASSIFICATION_TYPE>U</CLASSIFICATION_TYPE><NORAD_CAT_ID>25943</NORAD_CAT_ID><ELEMENT_SET_NO>999</ELEMENT_SET_NO><REV_AT_EPOCH>10691</REV_AT_EPOCH><BSTAR>.32553E-3</BSTAR><MEAN_MOTION_DOT>-.57E-6</MEAN_MOTION_DOT><MEAN_MOTION_DDOT>0</MEAN_MOTION_DDOT></tleParameters></data></segment></body></omm>
<omm id="CCSDS_OMM_VERS" version="2.0">
<header><CREATION_DATE/><ORIGINATOR/></header><body><segment><metadata><OBJECT_NAME>GLOBALSTAR M059 [-]</OBJECT_NAME><OBJECT_ID>1999-058B</OBJECT_ID><CENTER_NAME>EARTH</CENTER_NAME><REF_FRAME>TEME</REF_FRAME><TIME_SYSTEM>UTC</TIME_SYSTEM><MEAN_ELEMENT_THEORY>SGP4</MEAN_ELEMENT_THEORY></metadata><data><meanElements><EPOCH>2024-02-13T08:57:29.244096</EPOCH><MEAN_MOTION>11.99962499</MEAN_MOTION><ECCENTRICITY>.0000848</ECCENTRICITY><INCLINATION>52.0017</INCLINATION><RA_OF_ASC_NODE>92.2517</RA_OF_ASC_NODE><ARG_OF_PERICENTER>123.8087</ARG_OF_PERICENTER><MEAN_ANOMALY>249.5307</MEAN_ANOMALY></meanElements><tleParameters><EPHEMERIS_TYPE>0</EPHEMERIS_TYPE><CLASSIFICATION_TYPE>U</CLASSIFICATION_TYPE><NORAD_CAT_ID>25944</NORAD_CAT_ID><ELEMENT_SET_NO>999</ELEMENT_SET_NO><REV_AT_EPOCH>51524</REV_AT_EPOCH><BSTAR>.84828E-3</BSTAR><MEAN_MOTION_DOT>-.18E-6</MEAN_MOTION_DOT><MEAN_MOTION_DDOT>0</MEAN_MOTION_DDOT></tleParameters></data></segment></body></omm>
<omm id="CCSDS_OMM_VERS" version="2.0">
<header><CREATION_DATE/><ORIGINATOR/></header><body><segment><metadata><OBJECT_NAME>GLOBALSTAR M056 [-]</OBJECT_NAME><OBJECT_ID>1999-058C</OBJECT_ID><CENTER_NAME>EARTH</CENTER_NAME><REF_FRAME>TEME</REF_FRAME><TIME_SYSTEM>UTC</TIME_SYSTEM><MEAN_ELEMENT_THEORY>SGP4</MEAN_ELEMENT_THEORY></metadata><data><meanElements><EPOCH>2024-02-13T10:05:22.210080</EPOCH><MEAN_MOTION>12.04773679</MEAN_MOTION><ECCENTRICITY>.0000606</ECCENTRICITY><INCLINATION>51.9961</INCLINATION><RA_OF_ASC_NODE>106.6640</RA_OF_ASC_NODE><ARG_OF_PERICENTER>245.5395</ARG_OF_PERICENTER><MEAN_ANOMALY>127.1550</MEAN_ANOMALY></meanElements><tleParameters><EPHEMERIS_TYPE>0</EPHEMERIS_TYPE><CLASSIFICATION_TYPE>U</CLASSIFICATION_TYPE><NORAD_CAT_ID>25945</NORAD_CAT_ID><ELEMENT_SET_NO>999</ELEMENT_SET_NO><REV_AT_EPOCH>10359</REV_AT_EPOCH><BSTAR>-.21189E-3</BSTAR><MEAN_MOTION_DOT>-.106E-5</MEAN_MOTION_DOT><MEAN_MOTION_DDOT>0</MEAN_MOTION_DDOT></tleParameters></data></segment></body></omm>
<omm id="CCSDS_OMM_VERS" version="2.0">
<header><CREATION_DATE/><ORIGINATOR/></header><body><segment><metadata><OBJECT_NAME>GLOBALSTAR M031 [-]</OBJECT_NAME><OBJECT_ID>1999-058D</OBJECT_ID><CENTER_NAME>EARTH</CENTER_NAME><REF_FRAME>TEME</REF_FRAME><TIME_SYSTEM>UTC</TIME_SYSTEM><MEAN_ELEMENT_THEORY>SGP4</MEAN_ELEMENT_THEORY></metadata><data><meanElements><EPOCH>2024-02-13T10:59:56.724288</EPOCH><MEAN_MOTION>12.16002223</MEAN_MOTION><ECCENTRICITY>.0001246</ECCENTRICITY><INCLINATION>51.9980</INCLINATION><RA_OF_ASC_NODE>28.1891</RA_OF_ASC_NODE><ARG_OF_PERICENTER>266.5112</ARG_OF_PERICENTER><MEAN_ANOMALY>269.4735</MEAN_ANOMALY></meanElements><tleParameters><EPHEMERIS_TYPE>0</EPHEMERIS_TYPE><CLASSIFICATION_TYPE>U</CLASSIFICATION_TYPE><NORAD_CAT_ID>25946</NORAD_CAT_ID><ELEMENT_SET_NO>999</ELEMENT_SET_NO><REV_AT_EPOCH>10496</REV_AT_EPOCH><BSTAR>.12728E-2</BSTAR><MEAN_MOTION_DOT>.35E-6</MEAN_MOTION_DOT><MEAN_MOTION_DDOT>0</MEAN_MOTION_DDOT></tleParameters></data></segment></body></omm>
<omm id="CCSDS_OMM_VERS" version="2.0">
<header><CREATION_DATE/><ORIGINATOR/></header><body><segment><metadata><OBJECT_NAME>GLOBALSTAR M039 [-]</OBJECT_NAME><OBJECT_ID>1999-062A</OBJECT_ID><CENTER_NAME>EARTH</CENTER_NAME><REF_FRAME>TEME</REF_FRAME><TIME_SYSTEM>UTC</TIME_SYSTEM><MEAN_ELEMENT_THEORY>SGP4</MEAN_ELEMENT_THEORY></metadata><data><meanElements><EPOCH>2024-02-13T12:09:11.028960</EPOCH><MEAN_MOTION>12.62281647</MEAN_MOTION><ECCENTRICITY>.0002962</ECCENTRICITY><INCLINATION>51.9866</INCLINATION><RA_OF_ASC_NODE>320.1346</RA_OF_ASC_NODE><ARG_OF_PERICENTER>354.7335</ARG_OF_PERICENTER><MEAN_ANOMALY>5.3500</MEAN_ANOMALY></meanElements><tleParameters><EPHEMERIS_TYPE>0</EPHEMERIS_TYPE><CLASSIFICATION_TYPE>U</CLASSIFICATION_TYPE><NORAD_CAT_ID>25961</NORAD_CAT_ID><ELEMENT_SET_NO>999</ELEMENT_SET_NO><REV_AT_EPOCH>11837</REV_AT_EPOCH><BSTAR>.29949E-3</BSTAR><MEAN_MOTION_DOT>-.5E-6</MEAN_MOTION_DOT><MEAN_MOTION_DDOT>0</MEAN_MOTION_DDOT></tleParameters></data></segment></body></omm>
<omm id="CCSDS_OMM_VERS" version="2.0">
<header><CREATION_DATE/><ORIGINATOR/></header><body><segment><metadata><OBJECT_NAME>GLOBALSTAR M034 [-]</OBJECT_NAME><OBJECT_ID>1999-062B</OBJECT_ID><CENTER_NAME>EARTH</CENTER_NAME><REF_FRAME>TEME</REF_FRAME><TIME_SYSTEM>UTC</TIME_SYSTEM><MEAN_ELEMENT_THEORY>SGP4</MEAN_ELEMENT_THEORY></metadata><data><meanElements><EPOCH>2024-02-13T14:44:52.792224</EPOCH><MEAN_MOTION>11.79424495</MEAN_MOTION><ECCENTRICITY>.0014039</ECCENTRICITY><INCLINATION>51.9843</INCLINATION><RA_OF_ASC_NODE>203.9653</RA_OF_ASC_NODE><ARG_OF_PERICENTER>192.5294</ARG_OF_PERICENTER><MEAN_ANOMALY>246.9002</MEAN_ANOMALY></meanElements><tleParameters><EPHEMERIS_TYPE>0</EPHEMERIS_TYPE><CLASSIFICATION_TYPE>U</CLASSIFICATION_TYPE><NORAD_CAT_ID>25962</NORAD_CAT_ID><ELEMENT_SET_NO>999</ELEMENT_SET_NO><REV_AT_EPOCH>8062</REV_AT_EPOCH><BSTAR>.27361E-3</BSTAR><MEAN_MOTION_DOT>-.64E-6</MEAN_MOTION_DOT><MEAN_MOTION_DDOT>0</MEAN_MOTION_DDOT></tleParameters></data></segment></body></omm>
<omm id="CCSDS_OMM_VERS" version="2.0">
<header><CREATION_DATE/><ORIGINATOR/></header><body><segment><metadata><OBJECT_NAME>GLOBALSTAR M029 [-]</OBJECT_NAME><OBJECT_ID>1999-062C</OBJECT_ID><CENTER_NAME>EARTH</CENTER_NAME><REF_FRAME>TEME</REF_FRAME><TIME_SYSTEM>UTC</TIME_SYSTEM><MEAN_ELEMENT_THEORY>SGP4</MEAN_ELEMENT_THEORY></metadata><data><meanElements><EPOCH>2024-02-13T13:14:51.432288</EPOCH><MEAN_MOTION>11.99873477</MEAN_MOTION><ECCENTRICITY>.0002118</ECCENTRICITY><INCLINATION>51.9834</INCLINATION><RA_OF_ASC_NODE>340.2251</RA_OF_ASC_NODE><ARG_OF_PERICENTER>237.0380</ARG_OF_PERICENTER><MEAN_ANOMALY>294.4593</MEAN_ANOMALY></meanElements><tleParameters><EPHEMERIS_TYPE>0</EPHEMERIS_TYPE><CLASSIFICATION_TYPE>U</CLASSIFICATION_TYPE><NORAD_CAT_ID>25963</NORAD_CAT_ID><ELEMENT_SET_NO>999</ELEMENT_SET_NO><REV_AT_EPOCH>11034</REV_AT_EPOCH><BSTAR>.26423E-3</BSTAR><MEAN_MOTION_DOT>-.65E-6</MEAN_MOTION_DOT><MEAN_MOTION_DDOT>0</MEAN_MOTION_DDOT></tleParameters></data></segment></body></omm>
<omm id="CCSDS_OMM_VERS" version="2.0">
<header><CREATION_DATE/><ORIGINATOR/></header><body><segment><metadata><OBJECT_NAME>GLOBALSTAR M061 [-]</OBJECT_NAME><OBJECT_ID>1999-062D</OBJECT_ID><CENTER_NAME>EARTH</CENTER_NAME><REF_FRAME>TEME</REF_FRAME><TIME_SYSTEM>UTC</TIME_SYSTEM><MEAN_ELEMENT_THEORY>SGP4</MEAN_ELEMENT_THEORY></metadata><data><meanElements><EPOCH>2024-02-13T06:42:06.114816</EPOCH><MEAN_MOTION>11.76758619</MEAN_MOTION><ECCENTRICITY>.0006116</ECCENTRICITY><INCLINATION>51.9819</INCLINATION><RA_OF_ASC_NODE>22.3802</RA_OF_ASC_NODE><ARG_OF_PERICENTER>122.8531</ARG_OF_PERICENTER><MEAN_ANOMALY>344.1888</MEAN_ANOMALY></meanElements><tleParameters><EPHEMERIS_TYPE>0</EPHEMERIS_TYPE><CLASSIFICATION_TYPE>U</CLASSIFICATION_TYPE><NORAD_CAT_ID>25964</NORAD_CAT_ID><ELEMENT_SET_NO>999</ELEMENT_SET_NO><REV_AT_EPOCH>6350</REV_AT_EPOCH><BSTAR>-.25714E-5</BSTAR><MEAN_MOTION_DOT>-.8E-6</MEAN_MOTION_DOT><MEAN_MOTION_DDOT>0</MEAN_MOTION_DDOT></tleParameters></data></segment></body></omm>

</ndm>
